{
"type": "FeatureCollection",
"name": "urb_rur_que",
"crs": { "type": "name", "properties": { "name": "urn:ogc:def:crs:OGC:1.3:CRS84" } },
"features": [
{ "type": "Feature", "properties": { "CD_SETOR": "330414405050044", "SITUACAO": "Rural", "CD_SIT": "8", "CD_TIPO": "0", "AREA_KM2": 5.3555657343598542, "CD_REGIAO": "3", "NM_REGIAO": "Sudeste", "CD_UF": "33", "NM_UF": "Rio de Janeiro", "CD_MUN": "3304144", "NM_MUN": "Queimados", "CD_DIST": "330414405", "NM_DIST": "Queimados", "CD_SUBDIST": "33041440505", "NM_SUBDIST": "Oeste", "CD_BAIRRO": ".", "NM_BAIRRO": null, "CD_NU": ".", "NM_NU": null, "CD_FCU": ".", "NM_FCU": null, "CD_AGLOM": ".", "NM_AGLOM": null, "CD_RGINT": "3301", "NM_RGINT": "Rio de Janeiro", "CD_RGI": "330001", "NM_RGI": "Rio de Janeiro", "CD_CONCURB": "3304557", "NM_CONCURB": "Rio de Janeiro/RJ", "v0001": 9.0, "v0002": 15.0, "v0003": 15.0, "v0004": 0.0, "v0005": 1.8, "v0006": 0.6, "v0007": 5.0 }, "geometry": { "type": "MultiPolygon", "coordinates": [ [ [ [ -43.630650399999979, -22.730577299999936 ], [ -43.630691, -22.730704599999967 ], [ -43.632400399999938, -22.732502299999965 ], [ -43.633685799999967, -22.734149699999932 ], [ -43.634808199999952, -22.735839399999975 ], [ -43.634979499999986, -22.736346899999944 ], [ -43.633612599999935, -22.738826099999983 ], [ -43.632634, -22.740998899999965 ], [ -43.632619299999931, -22.741554399999927 ], [ -43.633184899999947, -22.742851499999972 ], [ -43.633043, -22.743819899999949 ], [ -43.632015199999955, -22.744739099999947 ], [ -43.630608199999983, -22.745343799999944 ], [ -43.629890099999955, -22.745862699999975 ], [ -43.629430399999933, -22.74647049999993 ], [ -43.62936069999995, -22.746771699999954 ], [ -43.62931679999997, -22.746870499999943 ], [ -43.630089199999929, -22.749278299999958 ], [ -43.630502799999931, -22.750891799999977 ], [ -43.630532199999948, -22.751296399999944 ], [ -43.630360799999949, -22.751849 ], [ -43.62821189999994, -22.753604399999972 ], [ -43.627108599999985, -22.754731599999957 ], [ -43.626502899999934, -22.755116099999952 ], [ -43.626259599999969, -22.755470499999944 ], [ -43.625198599999976, -22.756306399999971 ], [ -43.624591799999962, -22.756495399999949 ], [ -43.624195799999939, -22.756540199999961 ], [ -43.623564599999952, -22.756611699999951 ], [ -43.62324, -22.756622299999947 ], [ -43.621401499999934, -22.756316099999935 ], [ -43.619764199999963, -22.756664499999943 ], [ -43.619109799999933, -22.757426599999974 ], [ -43.618750399999954, -22.757768799999951 ], [ -43.618395299999975, -22.758209 ], [ -43.617637899999977, -22.758752499999957 ], [ -43.617311399999949, -22.758887799999968 ], [ -43.616986899999972, -22.759161099999972 ], [ -43.616701299999932, -22.759215599999948 ], [ -43.616429399999959, -22.759351799999934 ], [ -43.616290699999979, -22.759619399999963 ], [ -43.615673899999933, -22.760143099999937 ], [ -43.615683099999956, -22.760211099999935 ], [ -43.615710599999943, -22.760415099999932 ], [ -43.615755199999967, -22.760781 ], [ -43.615734799999984, -22.761146699999983 ], [ -43.615771699999982, -22.761386099999982 ], [ -43.615791399999978, -22.761513799999932 ], [ -43.615966299999968, -22.761839799999962 ], [ -43.616182399999957, -22.762140899999963 ], [ -43.616364799999985, -22.76246459999993 ], [ -43.616585399999963, -22.762789099999964 ], [ -43.616785799999946, -22.763107899999966 ], [ -43.616986899999972, -22.763435399999935 ], [ -43.617217099999948, -22.763739799999939 ], [ -43.617466899999954, -22.764026499999943 ], [ -43.617744099999982, -22.764282099999946 ], [ -43.618033899999944, -22.764528 ], [ -43.618329, -22.764766399999928 ], [ -43.618615499999976, -22.765026899999953 ], [ -43.618900899999971, -22.765273699999966 ], [ -43.619167299999958, -22.76554509999994 ], [ -43.619462099999964, -22.76580279999996 ], [ -43.619752, -22.766059499999983 ], [ -43.62001209999994, -22.766331799999932 ], [ -43.620281599999942, -22.76659559999996 ], [ -43.620564899999977, -22.76685329999998 ], [ -43.620844399999953, -22.767115099999955 ], [ -43.62112929999995, -22.767375899999934 ], [ -43.621386499999971, -22.767658 ], [ -43.621669599999962, -22.767923099999962 ], [ -43.621947599999942, -22.768185699999947 ], [ -43.622235099999955, -22.768440799999951 ], [ -43.622498899999982, -22.76872359999993 ], [ -43.622764099999984, -22.768993599999931 ], [ -43.623029499999973, -22.769276099999956 ], [ -43.623216099999979, -22.769443899999942 ], [ -43.623313799999949, -22.769531599999937 ], [ -43.62358009999997, -22.769796099999951 ], [ -43.623855, -22.77007459999993 ], [ -43.62412809999995, -22.770346699999948 ], [ -43.62442029999994, -22.770593299999973 ], [ -43.624757, -22.770775899999933 ], [ -43.625142, -22.770915399999978 ], [ -43.625502599999948, -22.771069799999964 ], [ -43.625851799999964, -22.771235399999966 ], [ -43.62618539999994, -22.77143929999994 ], [ -43.62648379999996, -22.771674799999971 ], [ -43.626767199999961, -22.771930299999951 ], [ -43.627042299999971, -22.772188599999936 ], [ -43.627247699999941, -22.772498399999961 ], [ -43.627330299999983, -22.772853699999928 ], [ -43.627232699999979, -22.77320659999998 ], [ -43.627139799999952, -22.773559499999976 ], [ -43.627042399999937, -22.773917399999959 ], [ -43.626869, -22.774264499999958 ], [ -43.626845499999945, -22.774347499999976 ], [ -43.626769, -22.774618499999974 ], [ -43.626627399999961, -22.774957799999981 ], [ -43.626446199999975, -22.775286599999959 ], [ -43.626289899999961, -22.775622699999928 ], [ -43.626099499999953, -22.775951899999939 ], [ -43.625965899999983, -22.776304599999946 ], [ -43.625826399999937, -22.776671799999974 ], [ -43.625645, -22.776995399999976 ], [ -43.625514199999941, -22.777344599999935 ], [ -43.62537459999993, -22.777685299999973 ], [ -43.625208, -22.778016099999945 ], [ -43.625027699999976, -22.778358599999933 ], [ -43.624877399999946, -22.778697299999976 ], [ -43.624708399999975, -22.779048499999931 ], [ -43.624550299999953, -22.779392099999939 ], [ -43.62441, -22.779739199999938 ], [ -43.624250899999936, -22.780082199999981 ], [ -43.624123299999951, -22.780437099999972 ], [ -43.624016599999948, -22.780788199999961 ], [ -43.623988099999963, -22.781016099999931 ], [ -43.623957799999971, -22.781258199999968 ], [ -43.623893299999963, -22.781627899999933 ], [ -43.623845099999983, -22.782009099999982 ], [ -43.623797499999966, -22.782398899999976 ], [ -43.623783399999979, -22.782471099999952 ], [ -43.624047099999984, -22.782496199999969 ], [ -43.627368099999956, -22.782817199999954 ], [ -43.629484699999978, -22.78297589999994 ], [ -43.632909, -22.783165899999972 ], [ -43.634188, -22.783264299999928 ], [ -43.634626599999933, -22.783298 ], [ -43.634798, -22.783311199999957 ], [ -43.634799199999975, -22.783308699999964 ], [ -43.634826299999929, -22.78266919999993 ], [ -43.634865, -22.781757499999969 ], [ -43.635294199999976, -22.780501299999969 ], [ -43.634872099999939, -22.779221 ], [ -43.634027, -22.778592199999935 ], [ -43.632826, -22.777305299999966 ], [ -43.632325199999968, -22.776662599999952 ], [ -43.632243199999948, -22.775805199999979 ], [ -43.632343099999957, -22.774865299999931 ], [ -43.63394779999993, -22.771569 ], [ -43.634118499999943, -22.771218499999975 ], [ -43.63499, -22.769193299999927 ], [ -43.636216399999967, -22.767910299999983 ], [ -43.637158, -22.766120899999976 ], [ -43.637240799999972, -22.765080099999977 ], [ -43.636978099999965, -22.764170699999966 ], [ -43.636769, -22.763345799999968 ], [ -43.63695139999993, -22.762804299999971 ], [ -43.637011599999937, -22.762625499999956 ], [ -43.637599199999954, -22.761824199999978 ], [ -43.638459299999965, -22.760712599999977 ], [ -43.639248399999985, -22.760276499999975 ], [ -43.641009299999951, -22.757710599999939 ], [ -43.642224299999953, -22.756173499999932 ], [ -43.642647199999942, -22.755116499999929 ], [ -43.642971899999964, -22.754110899999944 ], [ -43.64312979999994, -22.753106 ], [ -43.643179799999984, -22.752776899999958 ], [ -43.643222, -22.752283199999965 ], [ -43.643283599999961, -22.751728799999967 ], [ -43.643328199999985, -22.751327299999957 ], [ -43.643248099999937, -22.750356099999976 ], [ -43.643105299999945, -22.749724699999945 ], [ -43.643027, -22.749474 ], [ -43.643048, -22.749164599999972 ], [ -43.643049699999949, -22.748986799999955 ], [ -43.643189, -22.748775099999932 ], [ -43.643376099999955, -22.748614399999951 ], [ -43.643768399999942, -22.748407399999962 ], [ -43.643933199999935, -22.748281399999939 ], [ -43.644090099999971, -22.748197199999936 ], [ -43.644331399999942, -22.747945399999935 ], [ -43.644505099999947, -22.747507799999937 ], [ -43.644601399999942, -22.746994399999949 ], [ -43.644642199999964, -22.746422 ], [ -43.644689199999959, -22.745934299999931 ], [ -43.644745499999942, -22.745674399999928 ], [ -43.644792699999982, -22.745456299999944 ], [ -43.644812499999944, -22.744877199999962 ], [ -43.644658199999981, -22.744140499999958 ], [ -43.644402199999945, -22.743001399999969 ], [ -43.644350599999939, -22.742538899999943 ], [ -43.644289599999979, -22.741911699999946 ], [ -43.644242199999951, -22.741425 ], [ -43.644223099999977, -22.74049059999993 ], [ -43.644221199999947, -22.740214899999955 ], [ -43.64421729999998, -22.739657499999964 ], [ -43.644378299999971, -22.738999 ], [ -43.64455229999993, -22.738447299999962 ], [ -43.644712199999958, -22.73788849999994 ], [ -43.644726899999966, -22.737837 ], [ -43.644766199999935, -22.737436399999979 ], [ -43.644749899999965, -22.736954699999956 ], [ -43.64455, -22.736569 ], [ -43.644272599999965, -22.736208699999963 ], [ -43.643876299999931, -22.735692499999971 ], [ -43.643784599999947, -22.735582 ], [ -43.64357519999993, -22.735292099999981 ], [ -43.643572699999936, -22.735246 ], [ -43.643490199999974, -22.73494119999998 ], [ -43.643255299999964, -22.734548699999948 ], [ -43.642649499999948, -22.734009899999933 ], [ -43.642072499999983, -22.73341279999994 ], [ -43.641636199999937, -22.732697199999961 ], [ -43.641479499999946, -22.732201299999929 ], [ -43.641305899999963, -22.731254599999943 ], [ -43.64120719999994, -22.73057689999996 ], [ -43.640975599999933, -22.729816299999982 ], [ -43.64075749999995, -22.729137599999945 ], [ -43.640646699999934, -22.728262199999961 ], [ -43.640563399999962, -22.727708599999971 ], [ -43.638403099999948, -22.728028599999959 ], [ -43.63676369999996, -22.728272599999968 ], [ -43.636172, -22.728360699999939 ], [ -43.635124299999973, -22.728516699999943 ], [ -43.634681899999975, -22.728576399999952 ], [ -43.633365399999946, -22.728754399999957 ], [ -43.633133899999962, -22.728785599999981 ], [ -43.63245969999997, -22.728881699999931 ], [ -43.632067799999959, -22.728939699999955 ], [ -43.63162669999997, -22.729005 ], [ -43.630873899999983, -22.729116699999963 ], [ -43.630384899999967, -22.729190199999948 ], [ -43.630008199999963, -22.729246799999942 ], [ -43.629962199999966, -22.729253799999981 ], [ -43.630650399999979, -22.730577299999936 ] ] ], [ [ [ -43.597123099999976, -22.703566699999953 ], [ -43.597395099999972, -22.703801 ], [ -43.597608799999932, -22.704111299999965 ], [ -43.597710699999936, -22.704367799999943 ], [ -43.597835399999951, -22.704694699999948 ], [ -43.598077199999977, -22.704806099999928 ], [ -43.598307699999964, -22.704915699999958 ], [ -43.598591099999965, -22.705017799999951 ], [ -43.599033199999951, -22.705221799999947 ], [ -43.599641599999984, -22.705516599999953 ], [ -43.599981699999944, -22.705705499999965 ], [ -43.600208399999985, -22.706151399999953 ], [ -43.600367199999937, -22.706397 ], [ -43.600627899999949, -22.707511799999963 ], [ -43.600677, -22.708528299999955 ], [ -43.60059769999998, -22.708653 ], [ -43.600393599999961, -22.709000599999968 ], [ -43.60014039999993, -22.709336899999983 ], [ -43.600012, -22.709571199999971 ], [ -43.599857, -22.709843299999932 ], [ -43.599629199999981, -22.710288699999978 ], [ -43.599346899999944, -22.710781499999939 ], [ -43.598829199999955, -22.711475699999937 ], [ -43.598715799999979, -22.711702499999944 ], [ -43.598700699999938, -22.71207279999993 ], [ -43.598791399999982, -22.712392099999931 ], [ -43.598861299999953, -22.712838 ], [ -43.59885369999995, -22.713215899999966 ], [ -43.598791399999982, -22.713599399999964 ], [ -43.598534499999971, -22.714542199999983 ], [ -43.598274499999945, -22.715217299999949 ], [ -43.598135799999966, -22.715466099999958 ], [ -43.598075299999948, -22.715783599999952 ], [ -43.598075299999948, -22.716102899999953 ], [ -43.598041299999977, -22.716611099999966 ], [ -43.598028099999965, -22.716773599999954 ], [ -43.598031899999967, -22.716892599999937 ], [ -43.597997899999939, -22.717132599999957 ], [ -43.597943399999963, -22.717215099999976 ], [ -43.598129799999981, -22.717313299999944 ], [ -43.598505199999977, -22.717459499999961 ], [ -43.598948499999949, -22.71786 ], [ -43.599119799999983, -22.718308399999955 ], [ -43.599477599999943, -22.71900119999998 ], [ -43.600041899999951, -22.719409299999938 ], [ -43.600717, -22.719910599999935 ], [ -43.601518099999964, -22.720588299999974 ], [ -43.602352, -22.721318899999972 ], [ -43.602931399999932, -22.721706799999936 ], [ -43.603301699999975, -22.721855499999947 ], [ -43.603881099999967, -22.721928499999933 ], [ -43.605418499999985, -22.72198359999993 ], [ -43.605922299999975, -22.721855099999971 ], [ -43.606657299999938, -22.721580899999935 ], [ -43.607391, -22.721651099999974 ], [ -43.608625399999937, -22.721643499999971 ], [ -43.609164499999963, -22.721671199999946 ], [ -43.609446699999978, -22.721691399999941 ], [ -43.610393899999963, -22.721540199999936 ], [ -43.610865, -22.721545299999946 ], [ -43.611237799999969, -22.721646 ], [ -43.612021299999981, -22.721908 ], [ -43.612363899999934, -22.722039 ], [ -43.612693899999954, -22.722265799999946 ], [ -43.612814399999934, -22.722470199999975 ], [ -43.613079399999947, -22.723142499999938 ], [ -43.613291, -22.72364129999994 ], [ -43.613512699999944, -22.724006499999973 ], [ -43.613686499999972, -22.724208099999942 ], [ -43.614056799999958, -22.724409599999944 ], [ -43.614326399999982, -22.724543099999948 ], [ -43.614792399999942, -22.724769899999956 ], [ -43.615006499999936, -22.724888299999975 ], [ -43.614887099999976, -22.725477699999942 ], [ -43.614845299999956, -22.725883299999964 ], [ -43.61481, -22.725999199999933 ], [ -43.614881899999943, -22.725982299999941 ], [ -43.614953799999967, -22.72596539999995 ], [ -43.617692699999964, -22.725321399999928 ], [ -43.622942799999976, -22.724129299999959 ], [ -43.624943799999983, -22.723622699999964 ], [ -43.625056599999937, -22.723588699999937 ], [ -43.628420399999982, -22.72257529999996 ], [ -43.628962299999955, -22.721223599999973 ], [ -43.62902379999997, -22.720670599999949 ], [ -43.628981199999942, -22.720089299999927 ], [ -43.628896199999986, -22.719692299999963 ], [ -43.628683499999966, -22.719290499999943 ], [ -43.628409399999953, -22.718874599999936 ], [ -43.628111599999954, -22.71860049999998 ], [ -43.626950499999964, -22.717423699999927 ], [ -43.625883399999964, -22.716342299999951 ], [ -43.625654, -22.71610979999997 ], [ -43.623550799999975, -22.713959299999942 ], [ -43.623130199999935, -22.713538699999958 ], [ -43.62283709999997, -22.713241 ], [ -43.622586699999943, -22.712947899999961 ], [ -43.622236899999962, -22.712607599999956 ], [ -43.622057299999938, -22.712328799999966 ], [ -43.621806799999945, -22.71209719999996 ], [ -43.621598899999981, -22.712007399999948 ], [ -43.621282199999939, -22.711572599999954 ], [ -43.620852099999979, -22.711208699999929 ], [ -43.620653599999969, -22.711048 ], [ -43.620247199999937, -22.710537599999952 ], [ -43.61989269999998, -22.710239799999954 ], [ -43.619713099999956, -22.710050799999976 ], [ -43.619519299999979, -22.709809699999937 ], [ -43.619363399999941, -22.709696299999962 ], [ -43.619241399999964, -22.709491199999945 ], [ -43.619098599999973, -22.709337 ], [ -43.618978699999957, -22.709177 ], [ -43.618607399999973, -22.708954299999959 ], [ -43.618465399999934, -22.708774699999935 ], [ -43.618370899999945, -22.708524199999943 ], [ -43.618318899999963, -22.708169699999928 ], [ -43.618276099999946, -22.707669199999941 ], [ -43.618233299999986, -22.706386599999973 ], [ -43.617321199999935, -22.706098299999951 ], [ -43.613770899999963, -22.704830199999947 ], [ -43.612674599999934, -22.704459399999962 ], [ -43.610027399999979, -22.703433899999936 ], [ -43.609707599999979, -22.703286599999956 ], [ -43.607366, -22.702850799999965 ], [ -43.604149799999959, -22.702262699999949 ], [ -43.602120799999966, -22.701712199999974 ], [ -43.601121599999942, -22.701378299999931 ], [ -43.600201499999969, -22.700663899999938 ], [ -43.600196, -22.700659599999938 ], [ -43.599458299999981, -22.70124629999998 ], [ -43.599300899999946, -22.701407499999959 ], [ -43.598964899999942, -22.701901299999975 ], [ -43.598595199999977, -22.702368099999944 ], [ -43.59843909999995, -22.702705499999979 ], [ -43.598395, -22.702779799999973 ], [ -43.598262699999964, -22.702857299999948 ], [ -43.598058399999957, -22.702977199999964 ], [ -43.597884099999931, -22.703061099999957 ], [ -43.596956, -22.70335 ], [ -43.597123099999976, -22.703566699999953 ] ] ] ] } },
{ "type": "Feature", "properties": { "CD_SETOR": "330414405010001", "SITUACAO": "Urbana", "CD_SIT": "1", "CD_TIPO": "0", "AREA_KM2": 0.062459603947523, "CD_REGIAO": "3", "NM_REGIAO": "Sudeste", "CD_UF": "33", "NM_UF": "Rio de Janeiro", "CD_MUN": "3304144", "NM_MUN": "Queimados", "CD_DIST": "330414405", "NM_DIST": "Queimados", "CD_SUBDIST": "33041440501", "NM_SUBDIST": "Centro", "CD_BAIRRO": ".", "NM_BAIRRO": null, "CD_NU": ".", "NM_NU": null, "CD_FCU": ".", "NM_FCU": null, "CD_AGLOM": ".", "NM_AGLOM": null, "CD_RGINT": "3301", "NM_RGINT": "Rio de Janeiro", "CD_RGI": "330001", "NM_RGI": "Rio de Janeiro", "CD_CONCURB": "3304557", "NM_CONCURB": "Rio de Janeiro/RJ", "v0001": 119.0, "v0002": 75.0, "v0003": 75.0, "v0004": 0.0, "v0005": 2.3, "v0006": 0.0392, "v0007": 51.0 }, "geometry": { "type": "MultiPolygon", "coordinates": [ [ [ [ -43.614931899999931, -22.750809299999958 ], [ -43.614976899999931, -22.751171399999976 ], [ -43.61492329999993, -22.75153789999996 ], [ -43.614960199999985, -22.751902299999983 ], [ -43.614979799999958, -22.752284699999962 ], [ -43.614984799999945, -22.752664299999935 ], [ -43.615004599999963, -22.753038199999935 ], [ -43.615041299999973, -22.753401599999961 ], [ -43.61505939999995, -22.753772499999968 ], [ -43.615079299999934, -22.754149799999936 ], [ -43.615120599999955, -22.754530899999963 ], [ -43.615160899999978, -22.754892299999938 ], [ -43.615175299999976, -22.755260699999951 ], [ -43.615160099999969, -22.755625699999939 ], [ -43.615172499999971, -22.755739699999936 ], [ -43.615201299999967, -22.756004799999971 ], [ -43.615227499999946, -22.756370199999935 ], [ -43.615232, -22.756740199999967 ], [ -43.615290099999982, -22.757111399999928 ], [ -43.615296199999932, -22.757476599999961 ], [ -43.615298899999971, -22.757542699999931 ], [ -43.615311, -22.757838099999958 ], [ -43.615374299999985, -22.7582 ], [ -43.615417899999954, -22.758568799999978 ], [ -43.615448199999946, -22.758938099999966 ], [ -43.615464499999973, -22.759051599999964 ], [ -43.615503099999955, -22.759319699999935 ], [ -43.615577099999939, -22.759695399999941 ], [ -43.615662099999952, -22.760055 ], [ -43.615673899999933, -22.760143099999937 ], [ -43.616290699999979, -22.759619399999963 ], [ -43.616429399999959, -22.759351799999934 ], [ -43.616701299999932, -22.759215599999948 ], [ -43.616986899999972, -22.759161099999972 ], [ -43.617311399999949, -22.758887799999968 ], [ -43.617637899999977, -22.758752499999957 ], [ -43.618395299999975, -22.758209 ], [ -43.618750399999954, -22.757768799999951 ], [ -43.619109799999933, -22.757426599999974 ], [ -43.619764199999963, -22.756664499999943 ], [ -43.621401499999934, -22.756316099999935 ], [ -43.62324, -22.756622299999947 ], [ -43.623564599999952, -22.756611699999951 ], [ -43.624195799999939, -22.756540199999961 ], [ -43.624591799999962, -22.756495399999949 ], [ -43.625198599999976, -22.756306399999971 ], [ -43.626259599999969, -22.755470499999944 ], [ -43.626502899999934, -22.755116099999952 ], [ -43.627108599999985, -22.754731599999957 ], [ -43.62821189999994, -22.753604399999972 ], [ -43.630360799999949, -22.751849 ], [ -43.630532199999948, -22.751296399999944 ], [ -43.630502799999931, -22.750891799999977 ], [ -43.630089199999929, -22.749278299999958 ], [ -43.62931679999997, -22.746870499999943 ], [ -43.62936069999995, -22.746771699999954 ], [ -43.629430399999933, -22.74647049999993 ], [ -43.629890099999955, -22.745862699999975 ], [ -43.630608199999983, -22.745343799999944 ], [ -43.632015199999955, -22.744739099999947 ], [ -43.633043, -22.743819899999949 ], [ -43.633184899999947, -22.742851499999972 ], [ -43.632619299999931, -22.741554399999927 ], [ -43.632634, -22.740998899999965 ], [ -43.633612599999935, -22.738826099999983 ], [ -43.634979499999986, -22.736346899999944 ], [ -43.634808199999952, -22.735839399999975 ], [ -43.633685799999967, -22.734149699999932 ], [ -43.632400399999938, -22.732502299999965 ], [ -43.630691, -22.730704599999967 ], [ -43.630650399999979, -22.730577299999936 ], [ -43.629962199999966, -22.729253799999981 ], [ -43.630008199999963, -22.729246799999942 ], [ -43.630384899999967, -22.729190199999948 ], [ -43.630873899999983, -22.729116699999963 ], [ -43.63162669999997, -22.729005 ], [ -43.632067799999959, -22.728939699999955 ], [ -43.63245969999997, -22.728881699999931 ], [ -43.633133899999962, -22.728785599999981 ], [ -43.633365399999946, -22.728754399999957 ], [ -43.634681899999975, -22.728576399999952 ], [ -43.635124299999973, -22.728516699999943 ], [ -43.636172, -22.728360699999939 ], [ -43.63676369999996, -22.728272599999968 ], [ -43.638403099999948, -22.728028599999959 ], [ -43.640563399999962, -22.727708599999971 ], [ -43.640528099999983, -22.727473799999927 ], [ -43.640340199999969, -22.726544799999942 ], [ -43.640281199999947, -22.726049099999955 ], [ -43.640268899999967, -22.725945399999944 ], [ -43.64018429999993, -22.725233 ], [ -43.639972199999931, -22.724665 ], [ -43.639786299999969, -22.724285899999927 ], [ -43.639675599999975, -22.723821699999974 ], [ -43.639458099999956, -22.723215299999936 ], [ -43.639233, -22.722572 ], [ -43.639012199999968, -22.721745799999951 ], [ -43.638877899999954, -22.720882099999983 ], [ -43.638709699999936, -22.720361899999943 ], [ -43.633573199999944, -22.721466899999939 ], [ -43.63347529999993, -22.721487899999943 ], [ -43.628420399999982, -22.72257529999996 ], [ -43.625056599999937, -22.723588699999937 ], [ -43.624943799999983, -22.723622699999964 ], [ -43.622942799999976, -22.724129299999959 ], [ -43.617692699999964, -22.725321399999928 ], [ -43.614953799999967, -22.72596539999995 ], [ -43.614881899999943, -22.725982299999941 ], [ -43.61481, -22.725999199999933 ], [ -43.614845299999956, -22.725883299999964 ], [ -43.614887099999976, -22.725477699999942 ], [ -43.615006499999936, -22.724888299999975 ], [ -43.614792399999942, -22.724769899999956 ], [ -43.614326399999982, -22.724543099999948 ], [ -43.614056799999958, -22.724409599999944 ], [ -43.613686499999972, -22.724208099999942 ], [ -43.613512699999944, -22.724006499999973 ], [ -43.613291, -22.72364129999994 ], [ -43.613079399999947, -22.723142499999938 ], [ -43.612814399999934, -22.722470199999975 ], [ -43.612693899999954, -22.722265799999946 ], [ -43.612363899999934, -22.722039 ], [ -43.612021299999981, -22.721908 ], [ -43.611237799999969, -22.721646 ], [ -43.610865, -22.721545299999946 ], [ -43.610393899999963, -22.721540199999936 ], [ -43.609446699999978, -22.721691399999941 ], [ -43.609164499999963, -22.721671199999946 ], [ -43.608625399999937, -22.721643499999971 ], [ -43.607391, -22.721651099999974 ], [ -43.606657299999938, -22.721580899999935 ], [ -43.605922299999975, -22.721855099999971 ], [ -43.605418499999985, -22.72198359999993 ], [ -43.603881099999967, -22.721928499999933 ], [ -43.603301699999975, -22.721855499999947 ], [ -43.602931399999932, -22.721706799999936 ], [ -43.602352, -22.721318899999972 ], [ -43.601518099999964, -22.720588299999974 ], [ -43.600717, -22.719910599999935 ], [ -43.600041899999951, -22.719409299999938 ], [ -43.599477599999943, -22.71900119999998 ], [ -43.599119799999983, -22.718308399999955 ], [ -43.598948499999949, -22.71786 ], [ -43.598505199999977, -22.717459499999961 ], [ -43.598129799999981, -22.717313299999944 ], [ -43.597943399999963, -22.717215099999976 ], [ -43.597997899999939, -22.717132599999957 ], [ -43.598031899999967, -22.716892599999937 ], [ -43.598028099999965, -22.716773599999954 ], [ -43.598041299999977, -22.716611099999966 ], [ -43.598075299999948, -22.716102899999953 ], [ -43.598075299999948, -22.715783599999952 ], [ -43.598135799999966, -22.715466099999958 ], [ -43.598274499999945, -22.715217299999949 ], [ -43.598534499999971, -22.714542199999983 ], [ -43.598791399999982, -22.713599399999964 ], [ -43.59885369999995, -22.713215899999966 ], [ -43.598861299999953, -22.712838 ], [ -43.598791399999982, -22.712392099999931 ], [ -43.598700699999938, -22.71207279999993 ], [ -43.598715799999979, -22.711702499999944 ], [ -43.598829199999955, -22.711475699999937 ], [ -43.599346899999944, -22.710781499999939 ], [ -43.599629199999981, -22.710288699999978 ], [ -43.599857, -22.709843299999932 ], [ -43.600012, -22.709571199999971 ], [ -43.60014039999993, -22.709336899999983 ], [ -43.600393599999961, -22.709000599999968 ], [ -43.60059769999998, -22.708653 ], [ -43.600677, -22.708528299999955 ], [ -43.600627899999949, -22.707511799999963 ], [ -43.600367199999937, -22.706397 ], [ -43.600208399999985, -22.706151399999953 ], [ -43.599981699999944, -22.705705499999965 ], [ -43.599641599999984, -22.705516599999953 ], [ -43.599033199999951, -22.705221799999947 ], [ -43.598591099999965, -22.705017799999951 ], [ -43.598307699999964, -22.704915699999958 ], [ -43.598077199999977, -22.704806099999928 ], [ -43.597835399999951, -22.704694699999948 ], [ -43.597710699999936, -22.704367799999943 ], [ -43.597608799999932, -22.704111299999965 ], [ -43.597395099999972, -22.703801 ], [ -43.597123099999976, -22.703566699999953 ], [ -43.596956, -22.70335 ], [ -43.597884099999931, -22.703061099999957 ], [ -43.598058399999957, -22.702977199999964 ], [ -43.598262699999964, -22.702857299999948 ], [ -43.598395, -22.702779799999973 ], [ -43.59843909999995, -22.702705499999979 ], [ -43.598595199999977, -22.702368099999944 ], [ -43.598964899999942, -22.701901299999975 ], [ -43.599300899999946, -22.701407499999959 ], [ -43.599458299999981, -22.70124629999998 ], [ -43.600196, -22.700659599999938 ], [ -43.600201499999969, -22.700663899999938 ], [ -43.601121599999942, -22.701378299999931 ], [ -43.602120799999966, -22.701712199999974 ], [ -43.604149799999959, -22.702262699999949 ], [ -43.607366, -22.702850799999965 ], [ -43.609707599999979, -22.703286599999956 ], [ -43.610027399999979, -22.703433899999936 ], [ -43.612674599999934, -22.704459399999962 ], [ -43.613770899999963, -22.704830199999947 ], [ -43.617321199999935, -22.706098299999951 ], [ -43.618233299999986, -22.706386599999973 ], [ -43.618231, -22.706316799999968 ], [ -43.618230099999948, -22.706168 ], [ -43.618224699999985, -22.70526469999993 ], [ -43.618207599999948, -22.704967699999941 ], [ -43.618082, -22.704716399999938 ], [ -43.617939199999967, -22.70445929999994 ], [ -43.617739299999982, -22.704185199999927 ], [ -43.617516499999965, -22.703882499999963 ], [ -43.616614099999936, -22.702803 ], [ -43.616471299999944, -22.702728799999932 ], [ -43.616374199999939, -22.702597399999945 ], [ -43.615791599999966, -22.701837799999964 ], [ -43.614843499999949, -22.700729699999954 ], [ -43.614013199999931, -22.699779 ], [ -43.613741199999936, -22.699467499999969 ], [ -43.613427099999967, -22.699181899999928 ], [ -43.613301699999965, -22.699140099999966 ], [ -43.613255699999968, -22.699124799999936 ], [ -43.613055799999984, -22.699096199999929 ], [ -43.612718899999948, -22.69899909999998 ], [ -43.612196199999971, -22.698810299999934 ], [ -43.612054399999977, -22.698686499999951 ], [ -43.611896299999955, -22.69848559999997 ], [ -43.611763699999983, -22.698229099999935 ], [ -43.611691099999973, -22.697942699999942 ], [ -43.611430299999938, -22.697049299999946 ], [ -43.611121299999979, -22.696016099999952 ], [ -43.610836099999972, -22.695062299999961 ], [ -43.610781499999973, -22.694879899999933 ], [ -43.610609599999975, -22.694304899999963 ], [ -43.610507, -22.693962899999974 ], [ -43.610370199999977, -22.693573899999933 ], [ -43.610357299999976, -22.69324469999998 ], [ -43.610301799999945, -22.693001099999947 ], [ -43.610216299999934, -22.692855699999939 ], [ -43.610049599999968, -22.692650499999957 ], [ -43.609991, -22.69262509999993 ], [ -43.60994809999994, -22.692606399999931 ], [ -43.609946599999944, -22.692604399999937 ], [ -43.609895799999947, -22.692536599999983 ], [ -43.60985809999994, -22.692523199999982 ], [ -43.609729099999981, -22.692477499999939 ], [ -43.609544, -22.692439399999955 ], [ -43.609229299999981, -22.692431499999941 ], [ -43.608784799999967, -22.692479699999978 ], [ -43.608526, -22.692503599999952 ], [ -43.608233399999961, -22.692537499999958 ], [ -43.607849199999976, -22.692577799999981 ], [ -43.607440199999985, -22.692608899999982 ], [ -43.606939399999931, -22.692661899999962 ], [ -43.606500599999947, -22.692699799999957 ], [ -43.606112399999972, -22.692738099999929 ], [ -43.605448499999966, -22.692805299999975 ], [ -43.60541969999997, -22.692808499999956 ], [ -43.60491959999996, -22.692863299999942 ], [ -43.604694599999959, -22.692882199999929 ], [ -43.604283699999939, -22.69294119999995 ], [ -43.604109499999936, -22.692934499999978 ], [ -43.603974899999969, -22.692902 ], [ -43.603678299999956, -22.69277429999994 ], [ -43.60355, -22.692679299999952 ], [ -43.603093599999966, -22.692237199999965 ], [ -43.602682699999946, -22.691806099999951 ], [ -43.600752299999954, -22.68978119999997 ], [ -43.599790199999973, -22.688785899999971 ], [ -43.598964599999931, -22.687931799999944 ], [ -43.598543899999981, -22.687529799999936 ], [ -43.598104599999942, -22.687061799999981 ], [ -43.596913899999947, -22.68581759999995 ], [ -43.59691, -22.68581359999996 ], [ -43.596795099999952, -22.685693499999957 ], [ -43.596596099999942, -22.685828 ], [ -43.59389, -22.687657099999967 ], [ -43.592077499999959, -22.688882199999966 ], [ -43.591374199999962, -22.689357599999937 ], [ -43.585872, -22.693076599999927 ], [ -43.58564169999994, -22.692978 ], [ -43.584262499999966, -22.692434499999933 ], [ -43.583701899999937, -22.692270699999938 ], [ -43.582849499999952, -22.692166199999974 ], [ -43.582255799999984, -22.692093799999952 ], [ -43.581988699999954, -22.692003499999942 ], [ -43.581699899999933, -22.691854699999965 ], [ -43.581561099999931, -22.691763099999946 ], [ -43.581431099999975, -22.691741299999933 ], [ -43.581365, -22.691750699999943 ], [ -43.581217099999947, -22.691826699999979 ], [ -43.581043699999952, -22.691971299999977 ], [ -43.580921399999966, -22.692036599999938 ], [ -43.580730699999947, -22.692041699999947 ], [ -43.580210099999931, -22.692029699999978 ], [ -43.579255899999964, -22.691974 ], [ -43.579167299999938, -22.691942099999949 ], [ -43.579083699999956, -22.691878899999949 ], [ -43.578964799999937, -22.691789099999937 ], [ -43.578835699999956, -22.691665899999975 ], [ -43.578833699999961, -22.691677399999946 ], [ -43.578797599999973, -22.69176589999995 ], [ -43.578768399999944, -22.691814 ], [ -43.578714499999933, -22.691858399999944 ], [ -43.578657199999952, -22.691887699999938 ], [ -43.578629499999977, -22.691901799999982 ], [ -43.578498699999955, -22.691929199999947 ], [ -43.578352, -22.691935699999931 ], [ -43.578220199999976, -22.691925399999946 ], [ -43.578090799999984, -22.691929699999946 ], [ -43.577674899999977, -22.691990699999963 ], [ -43.577194399999939, -22.692069599999968 ], [ -43.577036899999939, -22.692104699999959 ], [ -43.576962499999979, -22.692102099999943 ], [ -43.576792399999931, -22.692058699999961 ], [ -43.576646399999959, -22.692030599999953 ], [ -43.576541899999938, -22.69198369999998 ], [ -43.576419399999963, -22.691898599999945 ], [ -43.576236399999971, -22.691759499999932 ], [ -43.576096499999949, -22.691601799999944 ], [ -43.57588979999997, -22.691418699999929 ], [ -43.575506799999971, -22.691120199999943 ], [ -43.575076399999944, -22.690791399999966 ], [ -43.574815099999967, -22.690608599999962 ], [ -43.574660399999971, -22.690461199999959 ], [ -43.574333, -22.690211399999953 ], [ -43.574096499999939, -22.690051 ], [ -43.573980099999972, -22.689978099999962 ], [ -43.573660799999971, -22.68983529999997 ], [ -43.57320679999998, -22.689647799999932 ], [ -43.573004699999956, -22.689561199999957 ], [ -43.572981299999981, -22.689551199999983 ], [ -43.572963099999981, -22.689543399999934 ], [ -43.572942699999942, -22.689534599999945 ], [ -43.572716199999945, -22.689423799999929 ], [ -43.572586599999966, -22.689370699999927 ], [ -43.572457399999962, -22.689337799999976 ], [ -43.572353599999985, -22.68932 ], [ -43.572260899999947, -22.689322699999934 ], [ -43.572211099999947, -22.689342599999975 ], [ -43.572090799999955, -22.689406199999951 ], [ -43.571517, -22.689789299999973 ], [ -43.571331199999975, -22.689903799999968 ], [ -43.571202099999937, -22.689974199999938 ], [ -43.571128099999953, -22.690000399999974 ], [ -43.571012199999984, -22.690005199999973 ], [ -43.570881499999984, -22.690000899999973 ], [ -43.570569699999965, -22.689958899999965 ], [ -43.570111399999973, -22.68987489999995 ], [ -43.569736099999943, -22.689822299999946 ], [ -43.569568899999979, -22.689813899999933 ], [ -43.569466, -22.689810499999965 ], [ -43.569281299999943, -22.689838799999961 ], [ -43.569079299999942, -22.689921 ], [ -43.568501699999956, -22.690162799999939 ], [ -43.568417699999941, -22.690203 ], [ -43.56832309999993, -22.690217099999927 ], [ -43.568163599999934, -22.690211799999929 ], [ -43.567846399999951, -22.690152399999931 ], [ -43.56733829999996, -22.69002949999998 ], [ -43.567218899999943, -22.690025499999933 ], [ -43.567106599999931, -22.690030299999933 ], [ -43.567004399999973, -22.690069899999969 ], [ -43.56662259999996, -22.690286399999934 ], [ -43.566466599999956, -22.690375699999947 ], [ -43.566388299999971, -22.690401799999961 ], [ -43.566309299999944, -22.690413499999977 ], [ -43.566223699999966, -22.69041059999995 ], [ -43.566083699999979, -22.69037609999998 ], [ -43.565981099999931, -22.69032679999998 ], [ -43.565813, -22.690223799999956 ], [ -43.565665199999955, -22.69016449999998 ], [ -43.565476, -22.690106599999979 ], [ -43.565311799999961, -22.690018099999975 ], [ -43.56474819999994, -22.689764799999978 ], [ -43.564707399999975, -22.689746799999966 ], [ -43.564404799999977, -22.689613299999962 ], [ -43.564217699999972, -22.689552799999944 ], [ -43.564095299999963, -22.689531599999953 ], [ -43.563980599999979, -22.689533499999982 ], [ -43.563790299999937, -22.689570099999969 ], [ -43.563213299999973, -22.689731 ], [ -43.562539299999969, -22.689931499999943 ], [ -43.562336599999981, -22.689987899999949 ], [ -43.562123199999974, -22.690043799999955 ], [ -43.561938099999963, -22.690097899999955 ], [ -43.561771399999941, -22.690161299999943 ], [ -43.561585699999966, -22.690226899999971 ], [ -43.561547, -22.690245799999957 ], [ -43.561468, -22.69025739999995 ], [ -43.561370199999942, -22.69026539999993 ], [ -43.561249299999986, -22.690295799999944 ], [ -43.561093099999937, -22.690342199999975 ], [ -43.56063359999996, -22.690484599999934 ], [ -43.560346599999946, -22.690572499999973 ], [ -43.560205399999973, -22.690631 ], [ -43.560122099999944, -22.690662699999962 ], [ -43.560013899999944, -22.69069339999993 ], [ -43.559963, -22.690706 ], [ -43.559925199999952, -22.690710399999944 ], [ -43.559884499999953, -22.690708899999947 ], [ -43.559834699999954, -22.690704199999971 ], [ -43.559782299999938, -22.690687899999944 ], [ -43.55969319999997, -22.690658599999949 ], [ -43.559558199999969, -22.690607399999976 ], [ -43.559460299999955, -22.690572 ], [ -43.558926299999939, -22.690379199999938 ], [ -43.558340599999951, -22.690176 ], [ -43.558291499999939, -22.690159799999947 ], [ -43.558232499999974, -22.690151899999933 ], [ -43.558182599999952, -22.69015 ], [ -43.558091899999965, -22.690152499999954 ], [ -43.558051299999931, -22.69015109999998 ], [ -43.558017499999949, -22.690141199999971 ], [ -43.557987199999957, -22.690125599999931 ], [ -43.557963399999949, -22.690104599999927 ], [ -43.557931499999938, -22.690060099999982 ], [ -43.557889399999965, -22.690032599999938 ], [ -43.557436399999972, -22.689872 ], [ -43.556935, -22.689692399999956 ], [ -43.556645099999969, -22.689581099999941 ], [ -43.556421499999942, -22.689512599999944 ], [ -43.556268, -22.689472499999965 ], [ -43.556130099999962, -22.689433 ], [ -43.55603549999995, -22.68939789999996 ], [ -43.556009, -22.689384699999948 ], [ -43.556037499999945, -22.689264199999968 ], [ -43.556105899999977, -22.689066499999967 ], [ -43.55620719999996, -22.688809799999945 ], [ -43.556279099999983, -22.68864549999995 ], [ -43.556308899999976, -22.688521399999956 ], [ -43.556316, -22.688481599999932 ], [ -43.556322699999953, -22.688444199999935 ], [ -43.55631859999994, -22.688354899999979 ], [ -43.556296, -22.688262099999974 ], [ -43.55625589999994, -22.688164399999948 ], [ -43.556183499999975, -22.688018199999931 ], [ -43.556080399999985, -22.687813499999947 ], [ -43.556053899999938, -22.687735 ], [ -43.556042899999966, -22.687657099999967 ], [ -43.556039, -22.687605099999928 ], [ -43.556034499999953, -22.687505599999952 ], [ -43.556038, -22.687394 ], [ -43.556058199999939, -22.687243299999977 ], [ -43.556104599999969, -22.686964799999942 ], [ -43.55618039999996, -22.686603599999955 ], [ -43.556206299999985, -22.686420399999975 ], [ -43.556211399999938, -22.686276899999939 ], [ -43.556211499999961, -22.68612939999997 ], [ -43.556204199999968, -22.686024 ], [ -43.556177, -22.685921599999972 ], [ -43.556150799999955, -22.685837699999979 ], [ -43.556071199999963, -22.685715 ], [ -43.555988899999932, -22.685625 ], [ -43.555875699999945, -22.685547199999974 ], [ -43.55584829999998, -22.685529299999928 ], [ -43.555809899999986, -22.685504399999957 ], [ -43.555640899999958, -22.685421499999961 ], [ -43.555516799999964, -22.685352599999931 ], [ -43.555369199999973, -22.685259699999961 ], [ -43.555304299999932, -22.68519989999993 ], [ -43.555274899999972, -22.685162899999966 ], [ -43.555244799999969, -22.685125 ], [ -43.555224799999962, -22.685099699999967 ], [ -43.555187199999978, -22.685026599999958 ], [ -43.55514, -22.684927099999982 ], [ -43.555115799999953, -22.68483109999994 ], [ -43.555105399999945, -22.684709799999951 ], [ -43.555101399999955, -22.684432 ], [ -43.555088499999954, -22.684183699999949 ], [ -43.555029099999956, -22.683616099999938 ], [ -43.554992699999957, -22.683444699999939 ], [ -43.554962099999955, -22.68332909999998 ], [ -43.554931799999963, -22.683167599999933 ], [ -43.554870299999948, -22.682892299999935 ], [ -43.554793299999972, -22.682435799999951 ], [ -43.554789099999937, -22.682266899999945 ], [ -43.554794199999947, -22.682124399999964 ], [ -43.554824499999938, -22.682006199999933 ], [ -43.554859799999974, -22.681924 ], [ -43.554944899999953, -22.681783699999983 ], [ -43.555203099999972, -22.681394499999953 ], [ -43.555311, -22.681235099999981 ], [ -43.555408899999975, -22.681025799999929 ], [ -43.555464899999947, -22.680907 ], [ -43.555490099999986, -22.680800699999963 ], [ -43.555480799999941, -22.68065729999995 ], [ -43.55546309999994, -22.680533899999944 ], [ -43.555419699999959, -22.680321 ], [ -43.555397099999936, -22.680209799999943 ], [ -43.555391199999974, -22.680101699999966 ], [ -43.555402199999946, -22.679965599999946 ], [ -43.555433599999958, -22.679758 ], [ -43.555438, -22.67974049999998 ], [ -43.555027199999984, -22.679852099999948 ], [ -43.554730499999948, -22.679903099999933 ], [ -43.55443379999997, -22.679954199999941 ], [ -43.554066, -22.679948 ], [ -43.553104399999938, -22.679649499999982 ], [ -43.552198099999941, -22.679503899999929 ], [ -43.551523, -22.679426099999944 ], [ -43.551026899999954, -22.679457499999955 ], [ -43.550554899999952, -22.679656299999976 ], [ -43.550126599999942, -22.679981 ], [ -43.549683799999968, -22.680454899999972 ], [ -43.549293599999942, -22.680827799999975 ], [ -43.548955, -22.681195099999968 ], [ -43.54863679999994, -22.681455099999937 ], [ -43.548269, -22.681529399999931 ], [ -43.547760899999957, -22.681483 ], [ -43.547139099999981, -22.681232399999942 ], [ -43.546700199999975, -22.680972699999927 ], [ -43.545681199999933, -22.680409099999963 ], [ -43.544784799999945, -22.679946899999948 ], [ -43.544172599999968, -22.679884 ], [ -43.543749599999956, -22.679942199999971 ], [ -43.543031399999961, -22.680160299999955 ], [ -43.542358799999931, -22.680450499999949 ], [ -43.541969199999983, -22.680762399999935 ], [ -43.54146529999997, -22.681173599999966 ], [ -43.541188399999953, -22.681548699999951 ], [ -43.540643399999965, -22.68243259999997 ], [ -43.540518399999939, -22.682560499999965 ], [ -43.540314199999955, -22.682878899999935 ], [ -43.540168699999981, -22.682997099999966 ], [ -43.539818599999933, -22.68347179999995 ], [ -43.538884399999972, -22.684634199999948 ], [ -43.537774199999944, -22.685965599999975 ], [ -43.537219099999959, -22.68658419999997 ], [ -43.536166899999955, -22.687449199999946 ], [ -43.535970899999938, -22.68763679999995 ], [ -43.535714199999973, -22.687882399999978 ], [ -43.535672199999965, -22.687988799999971 ], [ -43.535583, -22.688214499999958 ], [ -43.535235499999942, -22.688398399999983 ], [ -43.535113899999942, -22.688462799999968 ], [ -43.534875199999931, -22.688558399999977 ], [ -43.534630299999947, -22.688672 ], [ -43.534548, -22.688710199999946 ], [ -43.534442799999965, -22.68874349999993 ], [ -43.534247799999946, -22.688805199999933 ], [ -43.533824, -22.688939699999935 ], [ -43.533259499999986, -22.68906469999996 ], [ -43.53281, -22.689133699999957 ], [ -43.532422699999984, -22.689154299999927 ], [ -43.531771299999946, -22.689188599999966 ], [ -43.531093699999985, -22.689206299999967 ], [ -43.530618499999946, -22.689226 ], [ -43.530196099999955, -22.689238099999955 ], [ -43.529650299999957, -22.689265299999931 ], [ -43.529174799999964, -22.689301399999977 ], [ -43.52869, -22.689386299999967 ], [ -43.528081, -22.689559799999927 ], [ -43.527454399999954, -22.689733099999955 ], [ -43.527039399999978, -22.689859599999977 ], [ -43.526686499999983, -22.689945799999975 ], [ -43.526041599999985, -22.690184199999976 ], [ -43.525634399999944, -22.690400499999953 ], [ -43.524997499999984, -22.690696199999934 ], [ -43.524502, -22.690944299999956 ], [ -43.523997599999973, -22.691192199999932 ], [ -43.523484699999983, -22.691423799999939 ], [ -43.523007599999971, -22.691598599999963 ], [ -43.522487099999978, -22.691724 ], [ -43.522459599999934, -22.691726199999948 ], [ -43.521958699999971, -22.691767599999935 ], [ -43.521228299999962, -22.691792899999939 ], [ -43.520269699999972, -22.691767 ], [ -43.519522199999983, -22.69174309999994 ], [ -43.518809899999951, -22.691711399999974 ], [ -43.518335099999945, -22.691690299999948 ], [ -43.517763599999967, -22.691668199999981 ], [ -43.517376699999943, -22.691648 ], [ -43.516875899999945, -22.691594 ], [ -43.516261199999974, -22.691498 ], [ -43.515594, -22.691385099999934 ], [ -43.514891099999943, -22.691304599999967 ], [ -43.514222699999948, -22.691289599999948 ], [ -43.513936599999965, -22.691300699999942 ], [ -43.51393319999994, -22.691300899999931 ], [ -43.513553799999954, -22.691315499999973 ], [ -43.513271799999984, -22.691353499999934 ], [ -43.512214599999936, -22.691489699999977 ], [ -43.512186, -22.691685799999959 ], [ -43.513058199999932, -22.691751199999942 ], [ -43.513613499999963, -22.691772699999945 ], [ -43.513732, -22.691916799999944 ], [ -43.513924399999951, -22.692602299999976 ], [ -43.51403369999997, -22.692893 ], [ -43.514042699999948, -22.693217499999946 ], [ -43.513859299999979, -22.693509499999948 ], [ -43.513885899999934, -22.693853399999966 ], [ -43.514046, -22.69406349999997 ], [ -43.514232499999935, -22.694146299999943 ], [ -43.514308799999981, -22.694151099999942 ], [ -43.51431139999994, -22.69415129999993 ], [ -43.51466929999998, -22.694173599999942 ], [ -43.515069399999959, -22.694150599999944 ], [ -43.515268399999968, -22.694206599999973 ], [ -43.515566299999932, -22.694378899999947 ], [ -43.51603979999993, -22.694476 ], [ -43.51641479999995, -22.694444699999963 ], [ -43.516740399999946, -22.694366599999967 ], [ -43.51715669999993, -22.694458399999974 ], [ -43.517343799999935, -22.694541399999935 ], [ -43.517618099999936, -22.694752699999981 ], [ -43.517684799999984, -22.694804099999942 ], [ -43.518232699999942, -22.694959799999936 ], [ -43.518856399999947, -22.695023599999956 ], [ -43.51921909999993, -22.694980599999951 ], [ -43.519632799999954, -22.694833699999947 ], [ -43.519821699999966, -22.694684799999948 ], [ -43.519975199999976, -22.694350199999974 ], [ -43.520176499999934, -22.694213 ], [ -43.520344699999953, -22.694109699999956 ], [ -43.520667199999934, -22.694108099999937 ], [ -43.521090699999945, -22.694278899999972 ], [ -43.521483099999955, -22.694653799999969 ], [ -43.521590599999968, -22.694784699999957 ], [ -43.521828299999981, -22.695074199999965 ], [ -43.522024899999963, -22.695377299999961 ], [ -43.522070099999951, -22.695475399999964 ], [ -43.522159099999953, -22.695668299999966 ], [ -43.522344199999964, -22.695878599999958 ], [ -43.522717099999966, -22.69604419999996 ], [ -43.523126899999966, -22.696268199999963 ], [ -43.523362499999962, -22.696421 ], [ -43.523583899999949, -22.696735899999965 ], [ -43.52376849999996, -22.69699259999993 ], [ -43.524026899999967, -22.69735419999995 ], [ -43.524237199999959, -22.697655399999974 ], [ -43.524375199999952, -22.697943099999975 ], [ -43.524391099999946, -22.697961299999974 ], [ -43.52459239999996, -22.698193799999956 ], [ -43.524802299999976, -22.698405199999968 ], [ -43.524857199999985, -22.698426099999949 ], [ -43.524925399999972, -22.698452199999963 ], [ -43.525021899999956, -22.698489 ], [ -43.525409799999977, -22.698500799999977 ], [ -43.52568279999997, -22.698527799999965 ], [ -43.525765899999953, -22.698569599999928 ], [ -43.525824599999964, -22.698599099999967 ], [ -43.526047, -22.698821299999963 ], [ -43.526242699999955, -22.699205599999971 ], [ -43.526299299999948, -22.69926229999993 ], [ -43.526452799999959, -22.699416099999951 ], [ -43.526825199999962, -22.699628099999927 ], [ -43.526873299999977, -22.699632299999962 ], [ -43.527124699999945, -22.699654 ], [ -43.527592599999934, -22.699699 ], [ -43.528023099999984, -22.699731799999938 ], [ -43.528334499999971, -22.69980419999996 ], [ -43.528569199999936, -22.700049699999965 ], [ -43.528831099999934, -22.70030509999998 ], [ -43.528961799999934, -22.700340499999982 ], [ -43.529216299999973, -22.700409399999955 ], [ -43.529601299999968, -22.700476399999957 ], [ -43.529962099999977, -22.700607199999979 ], [ -43.53002859999998, -22.700706299999979 ], [ -43.530134199999964, -22.700863699999957 ], [ -43.53029319999996, -22.701178 ], [ -43.530502899999931, -22.701423299999931 ], [ -43.530712299999948, -22.701438799999949 ], [ -43.531039599999986, -22.701463 ], [ -43.531371699999966, -22.701419899999962 ], [ -43.531539799999962, -22.701398099999949 ], [ -43.531801, -22.701504799999952 ], [ -43.53213889999995, -22.701712599999951 ], [ -43.532375399999978, -22.701862 ], [ -43.532830899999965, -22.70214 ], [ -43.533140099999969, -22.702420899999936 ], [ -43.533375199999966, -22.702631699999927 ], [ -43.533484399999963, -22.702839399999959 ], [ -43.533546599999966, -22.702957699999956 ], [ -43.533571399999971, -22.702964599999973 ], [ -43.533630099999982, -22.702980799999978 ], [ -43.533851399999946, -22.703201 ], [ -43.534017399999982, -22.703341599999931 ], [ -43.534539699999982, -22.703523 ], [ -43.534776699999952, -22.70356 ], [ -43.535213399999975, -22.70365529999998 ], [ -43.535547699999938, -22.703723799999977 ], [ -43.535793899999931, -22.703791499999966 ], [ -43.536046, -22.703946099999939 ], [ -43.535811499999966, -22.704097599999955 ], [ -43.535618, -22.704309299999977 ], [ -43.535564, -22.704691199999957 ], [ -43.535522699999945, -22.705050099999937 ], [ -43.535508599999957, -22.705158099999949 ], [ -43.535481899999979, -22.705362599999944 ], [ -43.535449, -22.705435699999953 ], [ -43.535426, -22.705918299999951 ], [ -43.535434699999939, -22.705967199999975 ], [ -43.535460499999942, -22.706115599999976 ], [ -43.535484899999972, -22.706254899999976 ], [ -43.535536599999944, -22.706423599999937 ], [ -43.535637299999962, -22.706907199999932 ], [ -43.535693699999968, -22.707406799999944 ], [ -43.535714799999937, -22.708122699999933 ], [ -43.535618399999976, -22.708466 ], [ -43.535598, -22.708538799999928 ], [ -43.535532299999943, -22.708839499999954 ], [ -43.535593199999937, -22.708990699999958 ], [ -43.535903399999938, -22.709179 ], [ -43.53629849999993, -22.709416899999951 ], [ -43.53670969999996, -22.709707799999933 ], [ -43.537094299999978, -22.709954699999969 ], [ -43.537532799999951, -22.710236799999961 ], [ -43.537950099999932, -22.710518799999932 ], [ -43.53823559999995, -22.710640399999932 ], [ -43.538422599999933, -22.710720099999946 ], [ -43.538968799999964, -22.711038 ], [ -43.539661499999966, -22.711681599999963 ], [ -43.539855, -22.711871799999983 ], [ -43.539982899999984, -22.711997399999973 ], [ -43.540414899999973, -22.712488099999973 ], [ -43.540686799999946, -22.712757099999976 ], [ -43.540958399999965, -22.713060899999959 ], [ -43.541075299999932, -22.713210099999969 ], [ -43.541241799999966, -22.713422699999967 ], [ -43.541686799999979, -22.713867099999959 ], [ -43.54195969999995, -22.714182 ], [ -43.542081699999983, -22.714322599999946 ], [ -43.542303799999956, -22.714579599999979 ], [ -43.542464, -22.714789699999983 ], [ -43.542528299999958, -22.714881799999944 ], [ -43.542347099999972, -22.714949299999944 ], [ -43.541948599999955, -22.715097799999967 ], [ -43.541617499999973, -22.715254699999946 ], [ -43.541505099999938, -22.715308 ], [ -43.541305799999975, -22.715402499999982 ], [ -43.541196899999932, -22.715458199999944 ], [ -43.540856199999951, -22.71563249999997 ], [ -43.540353499999981, -22.715917599999955 ], [ -43.540001699999948, -22.716111399999932 ], [ -43.539708699999949, -22.716312399999936 ], [ -43.53927189999996, -22.716614599999957 ], [ -43.539007499999968, -22.716809199999943 ], [ -43.538960699999961, -22.716843 ], [ -43.53851659999998, -22.717164 ], [ -43.538169699999969, -22.717391499999962 ], [ -43.537912099999971, -22.717622 ], [ -43.538165699999979, -22.717942799999946 ], [ -43.538259399999959, -22.718074099999967 ], [ -43.538485399999956, -22.718390499999941 ], [ -43.540058, -22.720592599999975 ], [ -43.540589299999965, -22.72133649999995 ], [ -43.541047699999979, -22.721978299999932 ], [ -43.541079299999979, -22.72203849999994 ], [ -43.541085499999951, -22.722050199999956 ], [ -43.541210299999932, -22.722287399999971 ], [ -43.541208599999948, -22.722451099999944 ], [ -43.541204099999959, -22.722878299999934 ], [ -43.541112599999963, -22.72325989999996 ], [ -43.540967399999943, -22.723589299999958 ], [ -43.540819499999941, -22.723801899999955 ], [ -43.540554899999961, -22.724019599999963 ], [ -43.540475699999945, -22.724051199999963 ], [ -43.540216099999952, -22.72415559999996 ], [ -43.539964599999962, -22.724315499999932 ], [ -43.539750399999946, -22.72448739999993 ], [ -43.539549199999954, -22.724613 ], [ -43.539448299999947, -22.724704799999927 ], [ -43.53934739999994, -22.724796599999934 ], [ -43.539171099999976, -22.724934 ], [ -43.53906829999994, -22.725199599999939 ], [ -43.539045, -22.725392099999965 ], [ -43.539013499999953, -22.725651099999936 ], [ -43.539034299999969, -22.726045299999953 ], [ -43.538818599999956, -22.726464699999951 ], [ -43.538613199999929, -22.72688729999993 ], [ -43.538522499999942, -22.727187799999967 ], [ -43.538307499999974, -22.727440799999954 ], [ -43.53847989999997, -22.727674099999945 ], [ -43.538977599999953, -22.728095599999961 ], [ -43.539270699999975, -22.72836419999993 ], [ -43.539568699999961, -22.72865749999994 ], [ -43.540003199999944, -22.728916399999946 ], [ -43.540405699999951, -22.729141 ], [ -43.540698199999952, -22.72935149999995 ], [ -43.540755899999965, -22.729426299999943 ], [ -43.540934199999981, -22.729646099999968 ], [ -43.540988, -22.729729 ], [ -43.541152699999941, -22.730074099999968 ], [ -43.541247599999963, -22.730550099999959 ], [ -43.541265899999985, -22.73065349999996 ], [ -43.54131469999993, -22.731072199999971 ], [ -43.541306099999986, -22.73142919999998 ], [ -43.541300899999953, -22.731535299999962 ], [ -43.541204899999968, -22.732281099999966 ], [ -43.541210399999954, -22.732434199999943 ], [ -43.541223, -22.732781399999965 ], [ -43.541227799999945, -22.732961399999965 ], [ -43.541236199999958, -22.73317069999996 ], [ -43.541233399999953, -22.733404899999982 ], [ -43.541244, -22.73361959999994 ], [ -43.541318699999977, -22.733918299999971 ], [ -43.541497499999934, -22.734336699999972 ], [ -43.541694299999961, -22.734783499999935 ], [ -43.54170419999997, -22.73481 ], [ -43.541911499999969, -22.73534449999994 ], [ -43.541919, -22.735364799999957 ], [ -43.542204699999957, -22.736130599999967 ], [ -43.542195499999934, -22.736132299999952 ], [ -43.541554, -22.736249099999952 ], [ -43.539591, -22.736746399999959 ], [ -43.533219, -22.738416699999959 ], [ -43.532842699999946, -22.73851529999996 ], [ -43.532280399999934, -22.738686499999972 ], [ -43.532347699999946, -22.739033499999948 ], [ -43.532519, -22.739371099999971 ], [ -43.532661799999971, -22.74003289999996 ], [ -43.53283, -22.740660199999979 ], [ -43.532972899999947, -22.741322099999934 ], [ -43.533167899999967, -22.741775799999971 ], [ -43.533400599999936, -22.742218299999934 ], [ -43.53367929999996, -22.742777199999978 ], [ -43.533826699999963, -22.743265099999974 ], [ -43.534057899999937, -22.743846699999949 ], [ -43.534215599999982, -22.744288499999982 ], [ -43.534348199999954, -22.744741599999941 ], [ -43.534406899999965, -22.74508979999996 ], [ -43.534465699999942, -22.745438 ], [ -43.534386499999982, -22.745831199999941 ], [ -43.534269399999971, -22.74627049999998 ], [ -43.534213099999931, -22.746668799999952 ], [ -43.534235899999942, -22.747069799999963 ], [ -43.534243599999968, -22.747521799999959 ], [ -43.534327699999949, -22.747835499999951 ], [ -43.534487099999978, -22.748115 ], [ -43.534624199999939, -22.748283 ], [ -43.534634299999937, -22.748295299999938 ], [ -43.534696799999949, -22.748371899999938 ], [ -43.534869299999968, -22.748593699999958 ], [ -43.534924699999976, -22.748641099999929 ], [ -43.534970299999941, -22.748680099999945 ], [ -43.535023899999942, -22.748725899999954 ], [ -43.535129299999937, -22.748816199999965 ], [ -43.535380599999939, -22.749124599999959 ], [ -43.535397399999965, -22.749456 ], [ -43.535367699999938, -22.749896099999944 ], [ -43.53531339999995, -22.750301199999967 ], [ -43.53526949999997, -22.750684699999965 ], [ -43.535218499999985, -22.750995599999953 ], [ -43.535216099999957, -22.751227299999982 ], [ -43.535202, -22.751377899999966 ], [ -43.535219699999971, -22.751425499999982 ], [ -43.535262699999976, -22.751540599999942 ], [ -43.535418099999958, -22.751752799999963 ], [ -43.535628599999939, -22.751881199999957 ], [ -43.535900699999956, -22.751937799999951 ], [ -43.536045299999955, -22.751965 ], [ -43.536407499999939, -22.751979899999981 ], [ -43.536718899999983, -22.752063899999939 ], [ -43.537163899999939, -22.752208499999938 ], [ -43.53737689999997, -22.752296699999931 ], [ -43.537561199999971, -22.752462299999934 ], [ -43.537714299999948, -22.752526299999943 ], [ -43.537817599999983, -22.752569499999936 ], [ -43.538721, -22.752789299999961 ], [ -43.539659899999947, -22.752938899999947 ], [ -43.539907399999947, -22.753024599999947 ], [ -43.540116799999964, -22.753272 ], [ -43.540288099999941, -22.75340529999994 ], [ -43.540649799999983, -22.753519499999982 ], [ -43.540912599999956, -22.753587699999969 ], [ -43.541347, -22.753700299999934 ], [ -43.541563499999938, -22.753881199999967 ], [ -43.541809799999953, -22.754146099999957 ], [ -43.541953699999965, -22.754271399999936 ], [ -43.542191699999933, -22.754319 ], [ -43.543033599999944, -22.754061899999954 ], [ -43.54380969999994, -22.754033499999935 ], [ -43.544116699999961, -22.754062 ], [ -43.544364099999939, -22.754119099999969 ], [ -43.544725799999981, -22.754342799999961 ], [ -43.544867199999942, -22.754453799999965 ], [ -43.545082599999944, -22.754625699999963 ], [ -43.54513129999998, -22.754661 ], [ -43.545357399999943, -22.75482489999996 ], [ -43.545503899999972, -22.754928099999972 ], [ -43.545967899999937, -22.755092299999944 ], [ -43.546196299999963, -22.755206499999929 ], [ -43.546460399999944, -22.755370699999958 ], [ -43.546738799999957, -22.755656299999941 ], [ -43.547003, -22.756120599999974 ], [ -43.547119499999951, -22.756874599999946 ], [ -43.547235499999942, -22.757338599999969 ], [ -43.547464599999955, -22.75825489999994 ], [ -43.547495499999968, -22.758547299999975 ], [ -43.547493799999984, -22.758581099999958 ], [ -43.547484099999963, -22.758777899999927 ], [ -43.547529699999984, -22.758867899999927 ], [ -43.547734899999966, -22.758822899999927 ], [ -43.547739099999944, -22.75843459999993 ], [ -43.547784499999977, -22.757820899999956 ], [ -43.547817699999939, -22.757441799999981 ], [ -43.547732599999961, -22.757047 ], [ -43.547603399999957, -22.756784099999948 ], [ -43.547535299999936, -22.75650429999996 ], [ -43.547586, -22.756281399999978 ], [ -43.547799599999962, -22.755702499999927 ], [ -43.548144799999932, -22.754726799999958 ], [ -43.548183799999947, -22.754742199999953 ], [ -43.548265899999933, -22.754791699999942 ], [ -43.548603399999934, -22.754944499999965 ], [ -43.548845, -22.755052899999953 ], [ -43.549163799999974, -22.755128599999978 ], [ -43.549262799999951, -22.755132299999957 ], [ -43.549428, -22.755083299999967 ], [ -43.549496699999963, -22.755042499999945 ], [ -43.549594599999978, -22.754953399999977 ], [ -43.549882499999967, -22.754703499999948 ], [ -43.550153899999941, -22.754513899999949 ], [ -43.55023019999993, -22.754500899999982 ], [ -43.550302599999952, -22.754491899999948 ], [ -43.550399, -22.754507499999931 ], [ -43.550800899999956, -22.754586 ], [ -43.551178499999935, -22.754675099999929 ], [ -43.55157319999995, -22.754781099999946 ], [ -43.551969099999951, -22.754849199999967 ], [ -43.552100399999972, -22.754877599999929 ], [ -43.552225699999951, -22.754896799999983 ], [ -43.552323799999954, -22.754897899999946 ], [ -43.55271879999998, -22.754939299999933 ], [ -43.55311949999998, -22.754952499999945 ], [ -43.553532699999948, -22.754957599999955 ], [ -43.553934, -22.754947 ], [ -43.55395679999998, -22.754945 ], [ -43.55402909999998, -22.754951299999959 ], [ -43.554085199999975, -22.754958899999963 ], [ -43.554209699999944, -22.754943 ], [ -43.554298199999948, -22.754961899999955 ], [ -43.55439819999998, -22.75496069999997 ], [ -43.554495199999963, -22.75497809999996 ], [ -43.554637, -22.754971299999966 ], [ -43.554746699999953, -22.754958 ], [ -43.55478039999997, -22.754958399999964 ], [ -43.554839799999968, -22.754959099999951 ], [ -43.554864, -22.754962 ], [ -43.554974799999968, -22.754975099999967 ], [ -43.555242799999974, -22.754981699999973 ], [ -43.555366699999979, -22.754983599999946 ], [ -43.555457299999944, -22.754986599999938 ], [ -43.555561299999965, -22.754959099999951 ], [ -43.55565809999996, -22.754978699999981 ], [ -43.555776199999968, -22.755034199999955 ], [ -43.555929499999934, -22.755084499999953 ], [ -43.555989, -22.755130299999962 ], [ -43.556001199999969, -22.755199299999958 ], [ -43.556002599999943, -22.755214699999954 ], [ -43.556008399999939, -22.755279399999949 ], [ -43.556077099999982, -22.755327099999931 ], [ -43.556193599999972, -22.755387499999983 ], [ -43.556380499999932, -22.755513699999938 ], [ -43.556459, -22.755563799999948 ], [ -43.556615699999952, -22.755663899999945 ], [ -43.556760699999984, -22.75577949999996 ], [ -43.557037, -22.755988599999966 ], [ -43.557332299999985, -22.756234199999938 ], [ -43.557624499999974, -22.756505199999935 ], [ -43.557926799999962, -22.756768 ], [ -43.558228199999974, -22.757023599999968 ], [ -43.558525399999951, -22.75729309999997 ], [ -43.558822, -22.757555799999977 ], [ -43.558843899999943, -22.757573699999966 ], [ -43.558957899999939, -22.757644499999969 ], [ -43.559071899999935, -22.757705 ], [ -43.559418599999958, -22.757875099999978 ], [ -43.55948479999995, -22.757884 ], [ -43.559620099999961, -22.757905099999959 ], [ -43.559712299999944, -22.757901799999956 ], [ -43.560098799999935, -22.75783389999998 ], [ -43.560287099999982, -22.757821599999943 ], [ -43.560666199999957, -22.757722499999943 ], [ -43.561043799999936, -22.757621399999948 ], [ -43.561411299999975, -22.757493299999965 ], [ -43.561794099999929, -22.757391799999937 ], [ -43.562173799999982, -22.757298 ], [ -43.562489399999947, -22.757215699999961 ], [ -43.562570299999948, -22.757194599999934 ], [ -43.562935, -22.757067399999983 ], [ -43.563256599999931, -22.756999499999949 ], [ -43.563379299999951, -22.756990299999927 ], [ -43.563716299999953, -22.756880099999933 ], [ -43.563769399999956, -22.75685859999993 ], [ -43.563991, -22.756805399999962 ], [ -43.564084799999932, -22.756792799999971 ], [ -43.564226699999949, -22.75674 ], [ -43.564596399999971, -22.756623199999979 ], [ -43.564981299999943, -22.756539 ], [ -43.565065199999935, -22.756523899999934 ], [ -43.565161799999942, -22.756483499999945 ], [ -43.565177299999959, -22.756477 ], [ -43.565526599999941, -22.756311 ], [ -43.565582199999938, -22.756286899999964 ], [ -43.565660199999968, -22.756269399999951 ], [ -43.565855099999965, -22.756177399999956 ], [ -43.566011599999968, -22.756103499999938 ], [ -43.566352, -22.755911499999968 ], [ -43.566391099999976, -22.75589059999993 ], [ -43.566711899999973, -22.755719599999964 ], [ -43.567049399999974, -22.75550549999997 ], [ -43.567386499999941, -22.755310099999974 ], [ -43.567702899999972, -22.755087699999933 ], [ -43.568011099999978, -22.754920299999981 ], [ -43.568050199999959, -22.754899099999932 ], [ -43.568256099999985, -22.754745199999945 ], [ -43.568321199999957, -22.754690299999936 ], [ -43.568479299999979, -22.754538799999978 ], [ -43.568526399999939, -22.754479899999978 ], [ -43.568656099999941, -22.754117099999974 ], [ -43.568763699999977, -22.753750699999955 ], [ -43.568870499999946, -22.753391599999929 ], [ -43.569016399999953, -22.75311419999997 ], [ -43.569076199999984, -22.753058099999976 ], [ -43.569143699999984, -22.75301479999996 ], [ -43.569313199999954, -22.752877299999966 ], [ -43.569364899999982, -22.75285109999993 ], [ -43.56946419999997, -22.752807599999983 ], [ -43.569704899999977, -22.752748899999972 ], [ -43.569783599999937, -22.752735399999949 ], [ -43.569868499999984, -22.752746099999968 ], [ -43.569956799999943, -22.752747799999952 ], [ -43.570059599999979, -22.752766799999961 ], [ -43.570086, -22.752771799999948 ], [ -43.570162299999936, -22.752794 ], [ -43.570236, -22.75281769999998 ], [ -43.570333099999971, -22.752872199999956 ], [ -43.570431599999949, -22.752920899999936 ], [ -43.570476099999951, -22.752942899999937 ], [ -43.570811699999979, -22.753138599999943 ], [ -43.571145899999976, -22.753352899999982 ], [ -43.571317399999941, -22.753428799999938 ], [ -43.571397599999955, -22.753451799999937 ], [ -43.571550299999956, -22.753556199999935 ], [ -43.571614299999965, -22.753599799999961 ], [ -43.571724199999949, -22.753670599999964 ], [ -43.571840799999961, -22.75374439999996 ], [ -43.572190399999954, -22.753913199999943 ], [ -43.57223369999997, -22.753939199999934 ], [ -43.572324399999957, -22.753996599999937 ], [ -43.572684199999969, -22.754171699999972 ], [ -43.572812099999965, -22.754235 ], [ -43.57304819999996, -22.754374799999937 ], [ -43.573105799999951, -22.754397599999947 ], [ -43.573107, -22.754398099999946 ], [ -43.573201299999937, -22.754429399999935 ], [ -43.573576899999978, -22.754534699999965 ], [ -43.573961599999961, -22.754606199999955 ], [ -43.57406119999996, -22.754626799999983 ], [ -43.574068799999964, -22.754628399999945 ], [ -43.574164199999984, -22.754651099999933 ], [ -43.574554199999966, -22.75474209999993 ], [ -43.574952199999984, -22.754830299999981 ], [ -43.575337099999956, -22.754917 ], [ -43.575732099999982, -22.754975699999932 ], [ -43.575913399999934, -22.754979099999957 ], [ -43.575996299999986, -22.754968399999939 ], [ -43.57604809999998, -22.754965799999979 ], [ -43.576087, -22.754963699999962 ], [ -43.576134599999932, -22.754948899999931 ], [ -43.576156199999957, -22.754942199999959 ], [ -43.576417799999945, -22.754881699999942 ], [ -43.576546399999984, -22.754851899999949 ], [ -43.576932599999964, -22.75477 ], [ -43.577319699999975, -22.754663 ], [ -43.57751, -22.754637 ], [ -43.577713699999947, -22.754609099999982 ], [ -43.578093899999942, -22.754507499999931 ], [ -43.578489699999977, -22.754418899999962 ], [ -43.578872799999942, -22.754315 ], [ -43.579248599999971, -22.75419009999996 ], [ -43.579409699999985, -22.754168599999957 ], [ -43.579562, -22.754151 ], [ -43.579615399999966, -22.754143599999963 ], [ -43.579858299999955, -22.754088399999944 ], [ -43.579967599999975, -22.75406959999998 ], [ -43.580157899999961, -22.754038499999979 ], [ -43.580155599999955, -22.754042099999936 ], [ -43.580363399999953, -22.754020099999934 ], [ -43.580878499999983, -22.754034399999966 ], [ -43.581009699999981, -22.754057499999931 ], [ -43.581124099999954, -22.754060799999934 ], [ -43.581206399999985, -22.754068399999937 ], [ -43.581597699999975, -22.754090099999928 ], [ -43.581989799999974, -22.754128899999955 ], [ -43.58238659999995, -22.75416789999997 ], [ -43.582776599999931, -22.754212699999982 ], [ -43.583163299999967, -22.754272699999945 ], [ -43.583553, -22.754289899999947 ], [ -43.583620899999971, -22.754291499999965 ], [ -43.583957899999973, -22.754299699999933 ], [ -43.58413059999998, -22.75430369999998 ], [ -43.584165499999983, -22.754289599999936 ], [ -43.584204199999931, -22.754268799999977 ], [ -43.58428159999994, -22.754254299999957 ], [ -43.58433969999993, -22.754247299999975 ], [ -43.584738499999958, -22.754193499999928 ], [ -43.585133199999973, -22.75414619999998 ], [ -43.585259299999962, -22.754129 ], [ -43.585379199999977, -22.754118799999958 ], [ -43.585530099999971, -22.754099199999928 ], [ -43.585619699999938, -22.754091199999948 ], [ -43.585662599999978, -22.754092 ], [ -43.585724699999957, -22.754093199999943 ], [ -43.585772799999972, -22.754082799999935 ], [ -43.585866099999976, -22.754097499999943 ], [ -43.586265, -22.754139499999951 ], [ -43.586653699999943, -22.754202499999963 ], [ -43.587061799999958, -22.754266 ], [ -43.587422599999968, -22.754305699999975 ], [ -43.587514299999953, -22.754314099999931 ], [ -43.587860699999965, -22.754369699999927 ], [ -43.588151699999969, -22.754398299999934 ], [ -43.588253399999985, -22.754408299999966 ], [ -43.588662299999953, -22.754420799999934 ], [ -43.58905569999996, -22.754413899999975 ], [ -43.589059199999951, -22.754413599999964 ], [ -43.589444199999946, -22.754377399999953 ], [ -43.589851599999974, -22.754360099999928 ], [ -43.590247799999929, -22.754352299999937 ], [ -43.590644299999951, -22.754365 ], [ -43.590798599999971, -22.754390099999966 ], [ -43.590842699999939, -22.754382199999952 ], [ -43.590922299999932, -22.754392099999961 ], [ -43.591070599999966, -22.754410499999949 ], [ -43.591150699999957, -22.754429899999934 ], [ -43.591222399999936, -22.754442299999937 ], [ -43.591354799999976, -22.754451599999982 ], [ -43.591436899999962, -22.754465799999934 ], [ -43.59156459999997, -22.754492699999957 ], [ -43.59168539999996, -22.754529199999979 ], [ -43.591846199999964, -22.754535799999928 ], [ -43.592250899999954, -22.75452869999998 ], [ -43.59243, -22.754475899999932 ], [ -43.592478, -22.754467799999929 ], [ -43.592863199999954, -22.754404499999964 ], [ -43.59324179999993, -22.754307199999971 ], [ -43.593630699999949, -22.754233799999952 ], [ -43.594013799999971, -22.754133899999943 ], [ -43.594406899999967, -22.754040099999941 ], [ -43.594784799999957, -22.753951099999938 ], [ -43.595163199999945, -22.75385319999998 ], [ -43.595547099999976, -22.75376609999995 ], [ -43.595627599999943, -22.753757499999949 ], [ -43.595707699999934, -22.753750699999955 ], [ -43.596083599999986, -22.753639899999939 ], [ -43.596314199999938, -22.753579099999968 ], [ -43.59636409999996, -22.753574699999945 ], [ -43.596526099999949, -22.753485499999954 ], [ -43.596570499999984, -22.75345619999996 ], [ -43.596840799999939, -22.753324599999928 ], [ -43.596889699999963, -22.753287 ], [ -43.597106099999962, -22.753203099999951 ], [ -43.597154, -22.753187099999934 ], [ -43.597223199999974, -22.75315919999997 ], [ -43.59757, -22.752993 ], [ -43.597900899999956, -22.752801499999975 ], [ -43.597940199999982, -22.752787499999954 ], [ -43.598105299999929, -22.752685499999927 ], [ -43.598177199999952, -22.752666399999953 ], [ -43.598235299999942, -22.752635399999974 ], [ -43.598293899999931, -22.752601399999946 ], [ -43.598477799999955, -22.752489199999957 ], [ -43.598506, -22.752465099999938 ], [ -43.598629399999936, -22.752359399999932 ], [ -43.598635599999966, -22.752354099999934 ], [ -43.598683499999936, -22.752313 ], [ -43.598723799999959, -22.752276 ], [ -43.598891799999933, -22.752091599999972 ], [ -43.598942199999954, -22.752024799999958 ], [ -43.599071899999956, -22.75182209999997 ], [ -43.599108799999954, -22.751752499999952 ], [ -43.599241199999938, -22.75142539999996 ], [ -43.599267099999963, -22.751382699999965 ], [ -43.599399199999937, -22.751138599999933 ], [ -43.599434499999973, -22.751069599999937 ], [ -43.599588599999947, -22.750722199999927 ], [ -43.599697399999968, -22.750454399999967 ], [ -43.599730499999964, -22.750373 ], [ -43.599805799999956, -22.750193299999978 ], [ -43.599909599999933, -22.750007899999957 ], [ -43.600004199999944, -22.749750099999972 ], [ -43.600174, -22.749320499999953 ], [ -43.600305099999957, -22.749034199999983 ], [ -43.600402299999985, -22.748870199999942 ], [ -43.600489699999969, -22.748736099999974 ], [ -43.60060969999995, -22.748599099999979 ], [ -43.600755699999979, -22.748471199999983 ], [ -43.600900099999933, -22.748382099999958 ], [ -43.601073699999972, -22.74829619999997 ], [ -43.601287599999978, -22.748233 ], [ -43.601292699999931, -22.748231399999952 ], [ -43.601296599999955, -22.748230799999931 ], [ -43.601541, -22.748196699999937 ], [ -43.601847499999963, -22.748120399999948 ], [ -43.602304799999956, -22.748032799999976 ], [ -43.602761899999962, -22.747960199999966 ], [ -43.60310039999996, -22.747889799999939 ], [ -43.603338599999972, -22.747855099999981 ], [ -43.603550799999937, -22.74783519999994 ], [ -43.603957299999934, -22.747777399999961 ], [ -43.604004799999984, -22.747766399999932 ], [ -43.604326399999934, -22.747692499999971 ], [ -43.604714799999954, -22.747631599999977 ], [ -43.605279399999972, -22.747532799999931 ], [ -43.605911599999956, -22.747416499999929 ], [ -43.606175099999973, -22.747385 ], [ -43.606343099999947, -22.747356 ], [ -43.606488599999977, -22.747311899999943 ], [ -43.606638799999985, -22.747285799999929 ], [ -43.606932799999981, -22.74724249999997 ], [ -43.607229899999936, -22.747193299999935 ], [ -43.607575399999973, -22.747147299999938 ], [ -43.607786799999985, -22.747082699999964 ], [ -43.607974, -22.747071699999935 ], [ -43.60822079999997, -22.747073 ], [ -43.608474, -22.747074199999929 ], [ -43.608644899999945, -22.747081099999946 ], [ -43.608939799999973, -22.747145099999955 ], [ -43.609268399999962, -22.747227199999941 ], [ -43.609759399999973, -22.747375599999941 ], [ -43.610242099999937, -22.747476199999937 ], [ -43.610673099999985, -22.747609299999965 ], [ -43.610880399999985, -22.747684699999979 ], [ -43.611254599999938, -22.747873899999945 ], [ -43.611533899999984, -22.748053699999957 ], [ -43.611859599999946, -22.748218699999939 ], [ -43.612180399999943, -22.748398499999951 ], [ -43.612951199999941, -22.748817899999949 ], [ -43.613297199999977, -22.748988599999961 ], [ -43.613415599999939, -22.749066299999981 ], [ -43.613476399999968, -22.749114 ], [ -43.61355, -22.749155899999948 ], [ -43.613602899999933, -22.749156099999936 ], [ -43.61366849999996, -22.749180099999933 ], [ -43.613708499999973, -22.749201099999937 ], [ -43.613750099999947, -22.749239799999941 ], [ -43.613780499999962, -22.749266699999964 ], [ -43.613871699999947, -22.749314499999969 ], [ -43.613946899999974, -22.749326699999983 ], [ -43.614071199999955, -22.749319599999978 ], [ -43.614346199999943, -22.74969619999996 ], [ -43.614488699999981, -22.749899599999935 ], [ -43.614553099999966, -22.750003699999979 ], [ -43.614636499999961, -22.750123199999962 ], [ -43.614808299999936, -22.750457399999959 ], [ -43.614931899999931, -22.750809299999958 ] ] ] ] } }
]
}
